OBJECT_NAME,OBJECT_ID,EPOCH,MEAN_MOTION,ECCENTRICITY,INCLINATION,RA_OF_ASC_NODE,ARG_OF_PERICENTER,MEAN_ANOMALY,EPHEMERIS_TYPE,CLASSIFICATION_TYPE,NORAD_CAT_ID,ELEMENT_SET_NO,REV_AT_EPOCH,BSTAR,MEAN_MOTION_DOT,MEAN_MOTION_DDOT
IRIDIUM 156,2018-061H,2026-06-28T16:46:34.755168,14.34219516,.00020161,86.3950,51.9152,86.2814,273.8613,0,U,43576,999,41502,.73046686E-4,.224E-5,0
IRIDIUM 164,2018-061J,2026-06-28T17:59:38.482944,14.34217769,.0002231,86.3952,51.9345,90.2361,269.9090,0,U,43577,999,41507,.5690458E-5,.36E-6,0
IRIDIUM 159,2018-061K,2026-06-29T13:19:34.521888,14.34217593,.0002211,86.3947,51.5341,84.3175,275.8273,0,U,43578,999,41515,.56954E-5,.36E-6,0
IRIDIUM 180,2019-002A,2026-06-29T13:18:50.927040,14.34217874,.0002232,86.3975,348.4265,89.4680,270.6771,0,U,43922,999,39076,.11141E-4,.51E-6,0
IRIDIUM 176,2019-002B,2026-06-29T12:41:54.316896,14.72230189,.0002399,86.6096,348.3788,88.2772,271.8720,0,U,43923,999,40106,.11751E-3,.765E-5,0
IRIDIUM 168,2019-002C,2026-06-29T13:09:42.585120,14.34217463,.000222,86.3978,348.5067,90.2273,269.9177,0,U,43924,999,39074,.37503E-4,.125E-5,0
IRIDIUM 173,2019-002D,2026-06-29T12:51:26.926848,14.34217614,.0002052,86.3973,348.4006,89.0944,271.0487,0,U,43925,999,39072,-.17062E-5,.15E-6,0
IRIDIUM 169,2019-002E,2026-06-29T13:31:36.159744,14.38609029,.0001646,86.4217,20.0178,85.8082,274.3305,0,U,43926,999,39200,.85377E-4,.281E-5,0
IRIDIUM 172,2019-002F,2026-06-29T12:42:18.922752,14.34217189,.000224,86.3974,348.4110,89.3986,270.7466,0,U,43927,999,39073,.7695E-5,.41E-6,0
IRIDIUM 175,2019-002G,2026-06-29T08:04:43.133376,14.43619311,.0004011,86.4518,285.4424,148.0948,212.0497,0,U,43928,999,40073,.8953E-4,.323E-5,0
IRIDIUM 171,2019-002H,2026-06-29T12:14:54.944160,14.34217593,.0002129,86.3984,348.7264,93.9192,266.2247,0,U,43929,999,39072,-.15886E-5,.15E-6,0
IRIDIUM 170,2019-002J,2026-06-29T12:50:47.918112,14.72230791,.0002461,86.6095,348.3786,84.8368,275.3130,0,U,43930,999,40107,.11849E-3,.771E-5,0
IRIDIUM 167,2019-002K,2026-06-29T12:05:46.906368,14.34217510,.0001911,86.3972,348.4442,98.0570,262.0843,0,U,43931,999,39072,-.26686E-5,.12E-6,0
IRIDIUM 181,2023-068S,2026-06-28T18:05:27.773088,14.43312011,.0002435,86.4488,51.9549,87.1177,273.0303,0,U,56726,999,16410,.77196298E-4,.28E-5,0
IRIDIUM 177,2023-068T,2026-06-29T10:10:06.930048,14.80039876,.0002331,86.1972,322.9797,89.5117,270.6371,0,U,56727,999,16817,.13859E-3,.1075E-4,0
IRIDIUM 174,2023-068U,2026-06-29T12:33:00.466848,14.72238493,.0002326,86.6104,348.5323,80.2211,279.9268,0,U,56728,999,16783,.12318E-3,.801E-5,0
IRIDIUM 178,2023-068V,2026-06-29T13:08:56.007744,14.80041242,.0002475,86.6531,20.1931,85.7324,274.4181,0,U,56729,999,16819,.10822E-3,.845E-5,0
IRIDIUM 179,2023-068W,2026-06-29T13:01:20.860320,14.80057741,.0002419,86.6764,29.2125,87.3249,272.8249,0,U,56730,999,16819,.70088E-4,.557E-5,0
